[{"OBJECT_NAME":"CURIUM ONE","OBJECT_ID":"2024-128H","EPOCH":"2026-03-09T16:29:14.303904","MEAN_MOTION":15.10847276,"ECCENTRICITY":0.00508907,"INCLINATION":61.979,"RA_OF_ASC_NODE":197.7537,"ARG_OF_PERICENTER":110.7183,"MEAN_ANOMALY":249.9377,"EPHEMERIS_TYPE":0,"CLASSIFICATION_TYPE":"U","NORAD_CAT_ID":60242,"ELEMENT_SET_NO":999,"REV_AT_EPOCH":9141,"BSTAR":0.00074106619,"MEAN_MOTION_DOT":0.00012574,"MEAN_MOTION_DDOT":0},{"OBJECT_NAME":"PIESAT-2 09","OBJECT_ID":"2024-241A","EPOCH":"2026-03-09T23:58:51.117600","MEAN_MOTION":15.13443879,"ECCENTRICITY":0.00016869,"INCLINATION":97.524,"RA_OF_ASC_NODE":17.815,"ARG_OF_PERICENTER":93.7737,"MEAN_ANOMALY":266.3687,"EPHEMERIS_TYPE":0,"CLASSIFICATION_TYPE":"U","NORAD_CAT_ID":62333,"ELEMENT_SET_NO":999,"REV_AT_EPOCH":6779,"BSTAR":0.00033496992,"MEAN_MOTION_DOT":5.923e-5,"MEAN_MOTION_DDOT":0}]
